line1,line2,classification,launch_year,launch_number,launch_piece,epoch_year,epoch_day,mean_motion_dot,mean_motion_ddot,bstar,ephemeris_type,element_number,satellite_number,inclination,ra_of_asc_node,eccentricity,arg_of_perigee,mean_anomaly,mean_motion,rev_at_epoch,datetime,x,y,z,cartesian_cords,NORAD_CAT_ID,OBJECT_TYPE,SATNAME,SITE,Operator/Owner,Users,Purpose,anom_inclination,anom_ra_of_asc_node,anom_eccentricity,anom_arg_of_perigee,anom_mean_anomaly,anom_mean_motion,anom_count
1 00829U 64038A   22006.75876059  .00000270  00000-0  86861-4 0  9999,2 00829  60.8248 274.6246 2976115 277.0184  50.5905  9.14402030866535,U,64,038,A,22,6.75876059,2.7e-06,0.0,0.0,0,999,829,60.8248,274.6246,0.2976115,277.0184,50.5905,9.1440203,86653,2022-01-06 18:12:36.914976,643.6686450041188,-8476.414737891819,-1.2247393279426058,[ 6.43668645e+02 -8.47641474e+03 -1.22473933e+00],829,PAYLOAD,ELEKTRON 3,TTMTR,0,0,0,0.0,0.0,0.0,0.0,0.0,0.0,0.0
1 00829U 64038A   22006.21199040  .00000302  00000-0  95305-4 0  9997,2 00829  60.8249 275.3725 2976157 276.8737  50.7074  9.14401754866488,U,64,038,A,22,6.2119904,3.02e-06,0.0,0.0,0,999,829,60.8249,275.3725,0.2976157,276.8737,50.7074,9.14401754,86648,2022-01-06 05:05:15.970560,754.7926490563219,-8473.362407375367,-1.4730214285029604,[ 7.54792649e+02 -8.47336241e+03 -1.47302143e+00],829,PAYLOAD,ELEKTRON 3,TTMTR,0,0,0,0.0,0.0,0.0,0.0,0.0,0.0,0.0
1 00829U 64038A   22005.77457411  .00000327  00000-0  10195-3 0  9996,2 00829  60.8250 275.9706 2976223 276.7575  50.8012  9.14401542866442,U,64,038,A,22,5.77457411,3.27e-06,0.0,0.0,0,999,829,60.825,275.9706,0.2976223,276.7575,50.8012,9.14401542,86644,2022-01-05 18:35:23.203104,843.6949180335191,-8469.885293500321,-1.650385238529407,[ 8.43694918e+02 -8.46988529e+03 -1.65038524e+00],829,PAYLOAD,ELEKTRON 3,TTMTR,0,0,0,0.0,0.0,0.0,0.0,0.0,0.0,0.0
1   829U 64038A   22003.47813678  .00000406  00000-0  12259-3 0  9993,2   829  60.8251 279.1117 2976441 276.1492  51.2949  9.14399878866216,U,64,038,A,22,3.47813678,4.06e-06,0.0,0.0,0,999,829,60.8251,279.1117,0.2976441,276.1492,51.2949,9.14399878,86621,2022-01-03 11:28:31.017792,1310.4986871243327,-8436.392706447303,-2.6479179143497,[ 1.31049869e+03 -8.43639271e+03 -2.64791791e+00],829,PAYLOAD,ELEKTRON 3,TTMTR,0,0,0,0.0,0.0,0.0,0.0,0.0,0.0,0.0
1 00829U 64038A   22001.18169617  .00000470  00000-0  13933-3 0  9997,2 00829  60.8251 282.2531 2976653 275.5406  51.7920  9.14397651866024,U,64,038,A,22,1.18169617,4.7e-06,0.0,0.0,0,999,829,60.8251,282.2531,0.2976653,275.5406,51.792,9.14397651,86602,2022-01-01 04:21:38.549088,1776.2512007396654,-8377.315931753368,-3.6232627917303497,[ 1.77625120e+03 -8.37731593e+03 -3.62326279e+00],829,PAYLOAD,ELEKTRON 3,TTMTR,0,0,0,0.0,0.0,0.0,0.0,0.0,0.0,0.0
1 00829U 64038A   21365.74427856  .00000460  00000-0  13662-3 0  9991,2 00829  60.8251 282.8515 2976697 275.4247  51.8870  9.14397023865984,U,64,038,A,21,365.74427856,4.6e-06,0.0,0.0,0,999,829,60.8251,282.8515,0.2976697,275.4247,51.887,9.14397023,86598,2021-12-31 17:51:45.667584,1864.7327645088258,-8363.15812020921,-3.80338181025058,[ 1.86473276e+03 -8.36315812e+03 -3.80338181e+00],829,PAYLOAD,ELEKTRON 3,TTMTR,0,0,0,0.0,0.0,0.0,0.0,0.0,0.0,0.0
1 00829U 64038A   21365.19750615  .00000477  00000-0  14096-3 0  9992,2 00829  60.8252 283.5994 2976742 275.2799  52.0059  9.14396371865937,U,64,038,A,21,365.19750615,4.77e-06,0.0,0.0,0,999,829,60.8252,283.5994,0.2976742,275.2799,52.0059,9.14396371,86593,2021-12-31 04:44:24.531360,1975.1736744035518,-8344.159870387579,-4.035227002485954,[ 1.97517367e+03 -8.34415987e+03 -4.03522700e+00],829,PAYLOAD,ELEKTRON 3,TTMTR,0,0,0,0.0,0.0,0.0,0.0,0.0,0.0,0.0
1 00829U 64038A   21364.76008768  .00000538  00000-0  15709-3 0  9999,2 00829  60.8252 284.1978 2976790 275.1637  52.1012  9.14396151865890,U,64,038,A,21,364.76008768,5.38e-06,0.0,0.0,0,999,829,60.8252,284.1978,0.297679,275.1637,52.1012,9.14396151,86589,2021-12-30 18:14:31.575552,2063.402216808062,-8327.917609654047,-4.238855466103267,[ 2.06340222e+03 -8.32791761e+03 -4.23885547e+00],829,PAYLOAD,ELEKTRON 3,TTMTR,0,0,0,0.0,0.0,0.0,0.0,0.0,0.0,0.0
1 00829U 64038A   21364.21331450  .00000613  00000-0  17688-3 0  9998,2 00829  60.8254 284.9457 2976837 275.0189  52.2205  9.14395788865840,U,64,038,A,21,364.2133145,6.13e-06,0.0,0.0,0,999,829,60.8254,284.9457,0.2976837,275.0189,52.2205,9.14395788,86584,2021-12-30 05:07:10.372800,2173.522872905285,-8306.312455521711,-4.452803427439015,[ 2.17352287e+03 -8.30631246e+03 -4.45280343e+00],829,PAYLOAD,ELEKTRON 3,TTMTR,0,0,0,0.0,0.0,0.0,0.0,0.0,0.0,0.0
1 00829U 64038A   21363.77589595  .00000604  00000-0  17444-3 0  9993,2 00829  60.8254 285.5441 2976885 274.9028  52.3161  9.14395073865808,U,64,038,A,21,363.77589595,6.04e-06,0.0,0.0,0,999,829,60.8254,285.5441,0.2976885,274.9028,52.3161,9.14395073,86580,2021-12-29 18:37:17.410080,2261.4755977772543,-8287.988723336233,-4.635043013788032,[ 2.26147560e+03 -8.28798872e+03 -4.63504301e+00],829,PAYLOAD,ELEKTRON 3,TTMTR,0,0,0,0.0,0.0,0.0,0.0,0.0,0.0,0.0
1 00829U 64038A   21363.22912230  .00000631  00000-0  18142-3 0  9995,2 00829  60.8257 286.2920 2976936 274.7579  52.4356  9.14394359865754,U,64,038,A,21,363.2291223,6.31e-06,0.0,0.0,0,999,829,60.8257,286.292,0.2976936,274.7579,52.4356,9.14394359,86575,2021-12-29 05:29:56.166720,2371.190882008791,-8263.780891152257,-4.87244620047161,[ 2.37119088e+03 -8.26378089e+03 -4.87244620e+00],829,PAYLOAD,ELEKTRON 3,TTMTR,0,0,0,0.0,0.0,0.0,0.0,0.0,0.0,0.0
1   829U 64038A   21363.11976759  .00000634  00000-0  18208-3 0  9995,2   829  60.8257 286.4416 2976948 274.7289  52.4595  9.14394185865726,U,64,038,A,21,363.11976759,6.34e-06,0.0,0.0,0,999,829,60.8257,286.4416,0.2976948,274.7289,52.4595,9.14394185,86572,2021-12-29 02:52:27.919776,2393.106130430512,-8258.764691152812,-4.923088153138809,[ 2.39310613e+03 -8.25876469e+03 -4.92308815e+00],829,PAYLOAD,ELEKTRON 3,TTMTR,0,0,0,0.0,0.0,0.0,0.0,0.0,0.0,0.0
1 00829U 64038A   21362.79170307  .00000649  00000-0  18598-3 0  9991,2 00829  60.8258 286.8904 2976985 274.6418  52.5314  9.14393768865712,U,64,038,A,21,362.79170307,6.49e-06,0.0,0.0,0,999,829,60.8258,286.8904,0.2976985,274.6418,52.5314,9.14393768,86571,2021-12-28 19:00:03.145248,2458.8017006921204,-8243.375144201658,-5.060706266139587,[ 2.45880170e+03 -8.24337514e+03 -5.06070627e+00],829,PAYLOAD,ELEKTRON 3,TTMTR,0,0,0,0.0,0.0,0.0,0.0,0.0,0.0,0.0
1 00829U 64038A   21362.24492884  .00000667  00000-0  19080-3 0  9995,2 00829  60.8259 287.6384 2977036 274.4970  52.6512  9.14392943865662,U,64,038,A,21,362.24492884,6.67e-06,0.0,0.0,0,999,829,60.8259,287.6384,0.2977036,274.497,52.6512,9.14392943,86566,2021-12-28 05:52:41.851776,2568.0843869501664,-8216.565156232326,-5.287189084189899,[ 2.56808439e+03 -8.21656516e+03 -5.28718908e+00],829,PAYLOAD,ELEKTRON 3,TTMTR,0,0,0,0.0,0.0,0.0,0.0,0.0,0.0,0.0
1 00829U 64038A   21361.80750904  .00000686  00000-0  19567-3 0  9997,2 00829  60.8260 288.2368 2977087 274.3808  52.7474  9.14392321865622,U,64,038,A,21,361.80750904,6.86e-06,0.0,0.0,0,999,829,60.826,288.2368,0.2977087,274.3808,52.7474,9.14392321,86562,2021-12-27 19:22:48.781056,2655.318407401786,-8194.090385142576,-5.4614689470224524,[ 2.65531841e+03 -8.19409039e+03 -5.46146895e+00],829,PAYLOAD,ELEKTRON 3,TTMTR,0,0,0,0.0,0.0,0.0,0.0,0.0,0.0,0.0
1 00829U 64038A   21361.47944410  .00000701  00000-0  19958-3 0  9999,2 00829  60.8260 288.6855 2977116 274.2939  52.8194  9.14391824865597,U,64,038,A,21,361.4794441,7.01e-06,0.0,0.0,0,999,829,60.826,288.6855,0.2977116,274.2939,52.8194,9.14391824,86559,2021-12-27 11:30:23.970240,2720.594270434691,-8176.628111470403,-5.609934418533537,[ 2.72059427e+03 -8.17662811e+03 -5.60993442e+00],829,PAYLOAD,ELEKTRON 3,TTMTR,0,0,0,0.0,0.0,0.0,0.0,0.0,0.0,0.0
1 00829U 64038A   21360.82331378  .00000688  00000-0  19597-3 0  9993,2 00829  60.8261 289.5831 2977203 274.1197  52.9638  9.14390587865537,U,64,038,A,21,360.82331378,6.88e-06,0.0,0.0,0,999,829,60.8261,289.5831,0.2977203,274.1197,52.9638,9.14390587,86553,2021-12-26 19:45:34.310592,2850.8606889078787,-8140.149563223282,-5.877669053563926,[ 2.85086069e+03 -8.14014956e+03 -5.87766905e+00],829,PAYLOAD,ELEKTRON 3,TTMTR,0,0,0,0.0,0.0,0.0,0.0,0.0,0.0,0.0
1 00829U 64038A   21360.16718270  .00000724  00000-0  20532-3 0  9992,2 00829  60.8262 290.4807 2977267 273.9458  53.1084  9.14389603865477,U,64,038,A,21,360.1671827,7.24e-06,0.0,0.0,0,999,829,60.8262,290.4807,0.2977267,273.9458,53.1084,9.14389603,86547,2021-12-26 04:00:44.585280,2980.6515738289136,-8101.607759979927,-6.152385722041575,[ 2.98065157e+03 -8.10160776e+03 -6.15238572e+00],829,PAYLOAD,ELEKTRON 3,TTMTR,0,0,0,0.0,0.0,0.0,0.0,0.0,0.0,0.0
1 00829U 64038A   21359.83911657  .00000750  00000-0  21209-3 0  9999,2 00829  60.8263 290.9295 2977306 273.8586  53.1809  9.14389236865443,U,64,038,A,21,359.83911657,7.5e-06,0.0,0.0,0,999,829,60.8263,290.9295,0.2977306,273.8586,53.1809,9.14389236,86544,2021-12-25 20:08:19.671648,3045.359547662492,-8081.570373585403,-6.294015663734608,[ 3.04535955e+03 -8.08157037e+03 -6.29401566e+00],829,PAYLOAD,ELEKTRON 3,TTMTR,0,0,0,0.0,0.0,0.0,0.0,0.0,0.0,0.0
1 00829U 64038A   21359.18298459  .00000765  00000-0  21588-3 0  9991,2 00829  60.8264 291.8271 2977367 273.6846  53.3260  9.14388107865384,U,64,038,A,21,359.18298459,7.65e-06,0.0,0.0,0,999,829,60.8264,291.8271,0.2977367,273.6846,53.326,9.14388107,86538,2021-12-25 04:23:29.868576,3174.386769434667,-8039.953332807592,-6.56702174463224,[ 3.17438677e+03 -8.03995333e+03 -6.56702174e+00],829,PAYLOAD,ELEKTRON 3,TTMTR,0,0,0,0.0,0.0,0.0,0.0,0.0,0.0,0.0
1 00829U 64038A   21358.85491765  .00000789  00000-0  22207-3 0  9994,2 00829  60.8264 292.2760 2977410 273.5974  53.3987  9.14387788865359,U,64,038,A,21,358.85491765,7.89e-06,0.0,0.0,0,999,829,60.8264,292.276,0.297741,273.5974,53.3987,9.14387788,86535,2021-12-24 20:31:04.884960,3238.7113899967267,-8018.3710712904185,-6.7001848620225335,[ 3.23871139e+03 -8.01837107e+03 -6.70018486e+00],829,PAYLOAD,ELEKTRON 3,TTMTR,0,0,0,0.0,0.0,0.0,0.0,0.0,0.0,0.0
